[{"OBJECT_NAME":"STARLINK-35608","OBJECT_ID":"2025-263Z","EPOCH":"2026-03-09T03:20:05.314560","MEAN_MOTION":15.27569338,"ECCENTRICITY":0.00011551,"INCLINATION":43,"RA_OF_ASC_NODE":353.8938,"ARG_OF_PERICENTER":287.9889,"MEAN_ANOMALY":72.0837,"EPHEMERIS_TYPE":0,"CLASSIFICATION_TYPE":"U","NORAD_CAT_ID":66508,"ELEMENT_SET_NO":999,"REV_AT_EPOCH":1881,"BSTAR":0.0012487186,"MEAN_MOTION_DOT":0.00034248,"MEAN_MOTION_DDOT":0},{"OBJECT_NAME":"DMSP 5D-2 F13 DEB","OBJECT_ID":"1995-015HL","EPOCH":"2026-02-09T02:06:19.247328","MEAN_MOTION":15.12822218,"ECCENTRICITY":0.00117732,"INCLINATION":98.8603,"RA_OF_ASC_NODE":96.8879,"ARG_OF_PERICENTER":223.037,"MEAN_ANOMALY":136.9936,"EPHEMERIS_TYPE":0,"CLASSIFICATION_TYPE":"U","NORAD_CAT_ID":42294,"ELEMENT_SET_NO":999,"REV_AT_EPOCH":55633,"BSTAR":0.010466292,"MEAN_MOTION_DOT":0.00188804,"MEAN_MOTION_DDOT":0}]
